KUIPER-00629            
1 69783U 26151W   26191.83335647  .00031658  00000+0  87052-3 0  9993
2 69783  51.8744 201.5024 0007476 134.0377 225.4875 15.36893575  1665
KUIPER-00631            
1 69784U 26151X   26191.83335647  .00031443  00000+0  87095-3 0  9993
2 69784  51.8711 201.5174 0008033 141.3579 211.0933 15.36665336  1300
KUIPER-00634            
1 69785U 26151Y   26191.83335647  .00032165  00000+0  86322-3 0  9998
2 69785  51.8773 201.4511 0003792 123.2071 260.7743 15.37658286  1303
KUIPER-00639            
1 69786U 26151Z   26191.83335647  .00027132  00000+0  76879-3 0  9993
2 69786  51.8685 201.5449 0009808 145.7577 193.1360 15.36021318  1304
KUIPER-00641            
1 69787U 26151AA  26191.83335647  .00037220  00000+0  10757-2 0  9995
2 69787  51.8673 201.5737 0010919 148.5347 175.9024 15.35228839  1977
KUIPER-00644            
1 69788U 26151AB  26191.83335647  .00031050  00000+0  86517-3 0  9999
2 69788  51.8736 201.5286 0008719 143.9479 202.8329 15.36481887  2274
KUIPER-00646            
1 69789U 26151AC  26191.83335647  .00028685  00000+0  81400-3 0  9996
2 69789  51.8699 201.5415 0010014 147.8040 192.6354 15.35943070  1308
KUIPER-00647            
1 69790U 26151AD  26191.83335647  .00027522  00000+0  78969-3 0  9993
2 69790  51.8661 201.5685 0010635 148.6344 178.2710 15.35612669  2116
KUIPER-00662            
1 69791U 26151AE  26191.83335647  .00031204  00000+0  86675-3 0  9999
2 69791  51.8724 201.5228 0008672 138.9083 210.7980 15.36577760  1304
